$RFMSGFROM,16023,43,111,0,0*
$DECOMPRESS,63*
$BAROALT,100367.43,15.13,79.00*
$GPGGA,103900.000,4522.9860,N,07541.7840,W,1,08,01.2,80.0,M,-34.2,M,0,0*64
$GPRMC,103900.000,A,4522.9860,N,07541.7840,W,06.0,090.0,290317,,,D*49
$BATMV,4000*
$HRFSSI,-40*
$RFMSGEND*
$RFMSGFROM,16100,43,111,0,0*
$DECOMPRESS,63*
$BAROALT,101084.92,15.13,19.00*
$GPGGA,103900.000,4523.4000,N,07542.6000,W,1,08,01.2,20.0,M,-34.2,M,0,0*62
$GPRMC,103900.000,A,4523.4000,N,07542.6000,W,00.0,090.0,290317,,,D*43
$BATMV,4000*
$HRFSSI,-40*
$RFMSGEND*
$RFMSGFROM,16023,43,111,0,0*
$DECOMPRESS,63*
$BAROALT,100317.58,15.13,83.18*
$GPGGA,103901.000,4523.0111,N,07541.7858,W,1,08,01.2,84.2,M,-34.2,M,0,0*6D
$GPRMC,103901.000,A,4523.0111,N,07541.7858,W,06.0,096.0,290317,,,D*40
$BATMV,3999*
$HRFSSI,-41*
$RFMSGEND*
$RFMSGFROM,16100,43,111,0,0*
$DECOMPRESS,63*
$BAROALT,101084.92,15.13,19.00*
$GPGGA,103901.000,4523.4000,N,07542.6000,W,1,08,01.2,20.0,M,-34.2,M,0,0*63
$GPRMC,103901.000,A,4523.4000,N,07542.6000,W,00.0,096.0,290317,,,D*44
$BATMV,3999*
$HRFSSI,-41*
$RFMSGEND*
$RFMSGFROM,16023,43,111,0,0*
$DECOMPRESS,63*
$BAROALT,100268.31,15.13,87.32*
$GPGGA,103902.000,4523.0359,N,07541.7913,W,1,08,01.2,88.3,M,-34.2,M,0,0*63
$GPRMC,103902.000,A,4523.0359,N,07541.7913,W,06.0,102.0,290317,,,D*4F
$BATMV,3998*
$HRFSSI,-42*
$RFMSGEND*
$RFMSGFROM,16100,43,111,0,0*
$DECOMPRESS,63*
$BAROALT,101084.92,15.13,19.00*
$GPGGA,103902.000,4523.4000,N,07542.6000,W,1,08,01.2,20.0,M,-34.2,M,0,0*60
$GPRMC,103902.000,A,4523.4000,N,07542.6000,W,00.0,102.0,290317,,,D*4B
$BATMV,3998*
$HRFSSI,-42*
$RFMSGEND*
$RFMSGFROM,16023,43,111,0,0*
$DECOMPRESS,63*
$BAROALT,100220.13,15.13,91.36*
$GPGGA,103903.000,4523.0602,N,07541.8004,W,1,08,01.2,92.4,M,-34.2,M,0,0*65
$GPRMC,103903.000,A,4523.0602,N,07541.8004,W,06.0,108.0,290317,,,D*4F
$BATMV,3997*
$HRFSSI,-43*
$RFMSGEND*
$RFMSGFROM,16100,43,111,0,0*
$DECOMPRESS,63*
$BAROALT,101084.92,15.13,19.00*
$GPGGA,103903.000,4523.4000,N,07542.6000,W,1,08,01.2,20.0,M,-34.2,M,0,0*61
$GPRMC,103903.000,A,4523.4000,N,07542.6000,W,00.0,108.0,290317,,,D*40
$BATMV,3997*
$HRFSSI,-43*
$RFMSGEND*
$RFMSGFROM,16023,43,111,0,0*
$DECOMPRESS,63*
$BAROALT,100173.59,15.13,95.27*
$GPGGA,103904.000,4523.0836,N,07541.8130,W,1,08,01.2,96.3,M,-34.2,M,0,0*6E
$GPRMC,103904.000,A,4523.0836,N,07541.8130,W,06.0,114.0,290317,,,D*4A
$BATMV,3996*
$HRFSSI,-44*
$RFMSGEND*
$RFMSGFROM,16100,43,111,0,0*
$DECOMPRESS,63*
$BAROALT,101084.92,15.13,19.00*
$GPGGA,103904.000,4523.4000,N,07542.6000,W,1,08,01.2,20.0,M,-34.2,M,0,0*66
$GPRMC,103904.000,A,4523.4000,N,07542.6000,W,00.0,114.0,290317,,,D*4A
$BATMV,3996*
$HRFSSI,-44*
$RFMSGEND*
$RFMSGFROM,16023,43,111,0,0*
$DECOMPRESS,63*
$BAROALT,100129.18,15.13,99.00*
$GPGGA,103905.000,4523.1060,N,07541.8290,W,1,08,01.2,100.0,M,-34.2,M,0,0*51
$GPRMC,103905.000,A,4523.1060,N,07541.8290,W,06.0,120.0,290317,,,D*4F
$BATMV,3995*
$HRFSSI,-45*
$RFMSGEND*
$RFMSGFROM,16100,43,111,0,0*
$DECOMPRESS,63*
$BAROALT,101084.92,15.13,19.00*
$GPGGA,103905.000,4523.4000,N,07542.6000,W,1,08,01.2,20.0,M,-34.2,M,0,0*67
$GPRMC,103905.000,A,4523.4000,N,07542.6000,W,00.0,120.0,290317,,,D*4C
$BATMV,3995*
$HRFSSI,-45*
$RFMSGEND*
$RFMSGFROM,16023,43,111,0,0*
$DECOMPRESS,63*
$BAROALT,100087.40,15.13,102.51*
$GPGGA,103906.000,4523.1271,N,07541.8482,W,1,08,01.2,103.5,M,-34.2,M,0,0*53
$GPRMC,103906.000,A,4523.1271,N,07541.8482,W,06.0,126.0,290317,,,D*4D
$BATMV,3994*
$HRFSSI,-46*
$RFMSGEND*
$RFMSGFROM,16100,43,111,0,0*
$DECOMPRESS,63*
$BAROALT,101084.92,15.13,19.00*
$GPGGA,103906.000,4523.4000,N,07542.6000,W,1,08,01.2,20.0,M,-34.2,M,0,0*64
$GPRMC,103906.000,A,4523.4000,N,07542.6000,W,00.0,126.0,290317,,,D*49
$BATMV,3994*
$HRFSSI,-46*
$RFMSGEND*
$RFMSGFROM,16023,43,111,0,0*
$DECOMPRESS,63*
$BAROALT,100048.70,15.13,105.77*
$GPGGA,103907.000,4523.1466,N,07541.8703,W,1,08,01.2,106.8,M,-34.2,M,0,0*50
$GPRMC,103907.000,A,4523.1466,N,07541.8703,W,06.0,132.0,290317,,,D*43
$BATMV,3993*
$HRFSSI,-47*
$RFMSGEND*
$RFMSGFROM,16100,43,111,0,0*
$DECOMPRESS,63*
$BAROALT,101084.92,15.13,19.00*
$GPGGA,103907.000,4523.4000,N,07542.6000,W,1,08,01.2,20.0,M,-34.2,M,0,0*65
$GPRMC,103907.000,A,4523.4000,N,07542.6000,W,00.0,132.0,290317,,,D*4D
$BATMV,3993*
$HRFSSI,-47*
$RFMSGEND*
$RFMSGFROM,16023,43,111,0,0*
$DECOMPRESS,63*
$BAROALT,100013.49,15.13,108.73*
$GPGGA,103908.000,4523.1644,N,07541.8952,W,1,08,01.2,109.7,M,-34.2,M,0,0*57
$GPRMC,103908.000,A,4523.1644,N,07541.8952,W,06.0,138.0,290317,,,D*4E
$BATMV,3992*
$HRFSSI,-48*
$RFMSGEND*
$RFMSGFROM,16100,43,111,0,0*
$DECOMPRESS,63*
$BAROALT,101084.92,15.13,19.00*
$GPGGA,103908.000,4523.4000,N,07542.6000,W,1,08,01.2,20.0,M,-34.2,M,0,0*6A
$GPRMC,103908.000,A,4523.4000,N,07542.6000,W,00.0,138.0,290317,,,D*48
$BATMV,3992*
$HRFSSI,-48*
$RFMSGEND*
$RFMSGFROM,16023,43,111,0,0*
$DECOMPRESS,63*
$BAROALT,99982.17,15.13,111.36*
$GPGGA,103909.000,4523.1802,N,07541.9225,W,1,08,01.2,112.4,M,-34.2,M,0,0*59
$GPRMC,103909.000,A,4523.1802,N,07541.9225,W,06.0,144.0,290317,,,D*42
$BATMV,3991*
$HRFSSI,-49*
$RFMSGEND*
$RFMSGFROM,16100,43,111,0,0*
$DECOMPRESS,63*
$BAROALT,101084.92,15.13,19.00*
$GPGGA,103909.000,4523.4000,N,07542.6000,W,1,08,01.2,20.0,M,-34.2,M,0,0*6B
$GPRMC,103909.000,A,4523.4000,N,07542.6000,W,00.0,144.0,290317,,,D*42
$BATMV,3991*
$HRFSSI,-49*
$RFMSGEND*
$RFMSGFROM,16023,43,111,0,0*
$DECOMPRESS,63*
$BAROALT,99955.07,15.13,113.64*
$GPGGA,103910.000,4523.1938,N,07541.9520,W,1,08,01.2,114.6,M,-34.2,M,0,0*5F
$GPRMC,103910.000,A,4523.1938,N,07541.9520,W,06.0,150.0,290317,,,D*45
$BATMV,3990*
$HRFSSI,-50*
$RFMSGEND*
$RFMSGFROM,16100,43,111,0,0*
$DECOMPRESS,63*
$BAROALT,101084.92,15.13,19.00*
$GPGGA,103910.000,4523.4000,N,07542.6000,W,1,08,01.2,20.0,M,-34.2,M,0,0*63
$GPRMC,103910.000,A,4523.4000,N,07542.6000,W,00.0,150.0,290317,,,D*4F
$BATMV,3990*
$HRFSSI,-50*
$RFMSGEND*
$RFMSGFROM,16023,43,111,0,0*
$DECOMPRESS,63*
$BAROALT,99932.48,15.13,115.54*
$GPGGA,103911.000,4523.2053,N,07541.9833,W,1,08,01.2,116.5,M,-34.2,M,0,0*57
$GPRMC,103911.000,A,4523.2053,N,07541.9833,W,06.0,156.0,290317,,,D*4A
$BATMV,3989*
$HRFSSI,-51*
$RFMSGEND*
$RFMSGFROM,16100,43,111,0,0*
$DECOMPRESS,63*
$BAROALT,101084.92,15.13,19.00*
$GPGGA,103911.000,4523.4000,N,07542.6000,W,1,08,01.2,20.0,M,-34.2,M,0,0*62
$GPRMC,103911.000,A,4523.4000,N,07542.6000,W,00.0,156.0,290317,,,D*48
$BATMV,3989*
$HRFSSI,-51*
$RFMSGEND*
$RFMSGFROM,16023,43,111,0,0*
$DECOMPRESS,63*
$BAROALT,99914.65,15.13,117.04*
$GPGGA,103912.000,4523.2143,N,07542.0162,W,1,08,01.2,118.0,M,-34.2,M,0,0*58
$GPRMC,103912.000,A,4523.2143,N,07542.0162,W,06.0,162.0,290317,,,D*49
$BATMV,3988*
$HRFSSI,-52*
$RFMSGEND*
$RFMSGFROM,16100,43,111,0,0*
$DECOMPRESS,63*
$BAROALT,101084.92,15.13,19.00*
$GPGGA,103912.000,4523.4000,N,07542.6000,W,1,08,01.2,20.0,M,-34.2,M,0,0*61
$GPRMC,103912.000,A,4523.4000,N,07542.6000,W,00.0,162.0,290317,,,D*4C
$BATMV,3988*
$HRFSSI,-52*
$RFMSGEND*
$RFMSGFROM,16023,43,111,0,0*
$DECOMPRESS,63*
$BAROALT,99901.78,15.13,118.13*
$GPGGA,103913.000,4523.2208,N,07542.0501,W,1,08,01.2,119.1,M,-34.2,M,0,0*54
$GPRMC,103913.000,A,4523.2208,N,07542.0501,W,06.0,168.0,290317,,,D*4F
$BATMV,3987*
$HRFSSI,-53*
$RFMSGEND*
$RFMSGFROM,16100,43,111,0,0*
$DECOMPRESS,63*
$BAROALT,101084.92,15.13,19.00*
$GPGGA,103913.000,4523.4000,N,07542.6000,W,1,08,01.2,20.0,M,-34.2,M,0,0*60
$GPRMC,103913.000,A,4523.4000,N,07542.6000,W,00.0,168.0,290317,,,D*47
$BATMV,3987*
$HRFSSI,-53*
$RFMSGEND*
$RFMSGFROM,16023,43,111,0,0*
$DECOMPRESS,63*
$BAROALT,99894.00,15.13,118.78*
$GPGGA,103914.000,4523.2247,N,07542.0849,W,1,08,01.2,119.8,M,-34.2,M,0,0*50
$GPRMC,103914.000,A,4523.2247,N,07542.0849,W,06.0,174.0,290317,,,D*4F
$BATMV,3986*
$HRFSSI,-54*
$RFMSGEND*
$RFMSGFROM,16100,43,111,0,0*
$DECOMPRESS,63*
$BAROALT,101084.92,15.13,19.00*
$GPGGA,103914.000,4523.4000,N,07542.6000,W,1,08,01.2,20.0,M,-34.2,M,0,0*67
$GPRMC,103914.000,A,4523.4000,N,07542.6000,W,00.0,174.0,290317,,,D*4D
$BATMV,3986*
$HRFSSI,-54*
$RFMSGEND*
$RFMSGFROM,16023,43,111,0,0*
$DECOMPRESS,63*
$BAROALT,99891.40,15.13,119.00*
$GPGGA,103915.000,4523.2260,N,07542.1200,W,1,08,01.2,120.0,M,-34.2,M,0,0*50
$GPRMC,103915.000,A,4523.2260,N,07542.1200,W,06.0,180.0,290317,,,D*46
$BATMV,3985*
$HRFSSI,-55*
$RFMSGEND*
$RFMSGFROM,16100,43,111,0,0*
$DECOMPRESS,63*
$BAROALT,101084.92,15.13,19.00*
$GPGGA,103915.000,4523.4000,N,07542.6000,W,1,08,01.2,20.0,M,-34.2,M,0,0*66
$GPRMC,103915.000,A,4523.4000,N,07542.6000,W,00.0,180.0,290317,,,D*47
$BATMV,3985*
$HRFSSI,-55*
$RFMSGEND*
$RFMSGFROM,16023,43,111,0,0*
$DECOMPRESS,63*
$BAROALT,99894.00,15.13,118.78*
$GPGGA,103916.000,4523.2247,N,07542.1551,W,1,08,01.2,119.8,M,-34.2,M,0,0*57
$GPRMC,103916.000,A,4523.2247,N,07542.1551,W,06.0,186.0,290317,,,D*45
$BATMV,3984*
$HRFSSI,-56*
$RFMSGEND*
$RFMSGFROM,16100,43,111,0,0*
$DECOMPRESS,63*
$BAROALT,101084.92,15.13,19.00*
$GPGGA,103916.000,4523.4000,N,07542.6000,W,1,08,01.2,20.0,M,-34.2,M,0,0*65
$GPRMC,103916.000,A,4523.4000,N,07542.6000,W,00.0,186.0,290317,,,D*42
$BATMV,3984*
$HRFSSI,-56*
$RFMSGEND*
$RFMSGFROM,16023,43,111,0,0*
$DECOMPRESS,63*
$BAROALT,99901.78,15.13,118.13*
$GPGGA,103917.000,4523.2208,N,07542.1899,W,1,08,01.2,119.1,M,-34.2,M,0,0*5D
$GPRMC,103917.000,A,4523.2208,N,07542.1899,W,06.0,192.0,290317,,,D*43
$BATMV,3983*
$HRFSSI,-57*
$RFMSGEND*
$RFMSGFROM,16100,43,111,0,0*
$DECOMPRESS,63*
$BAROALT,101084.92,15.13,19.00*
$GPGGA,103917.000,4523.4000,N,07542.6000,W,1,08,01.2,20.0,M,-34.2,M,0,0*64
$GPRMC,103917.000,A,4523.4000,N,07542.6000,W,00.0,192.0,290317,,,D*46
$BATMV,3983*
$HRFSSI,-57*
$RFMSGEND*
$RFMSGFROM,16023,43,111,0,0*
$DECOMPRESS,63*
$BAROALT,99914.65,15.13,117.04*
$GPGGA,103918.000,4523.2143,N,07542.2238,W,1,08,01.2,118.0,M,-34.2,M,0,0*5C
$GPRMC,103918.000,A,4523.2143,N,07542.2238,W,06.0,198.0,290317,,,D*48
$BATMV,3982*
$HRFSSI,-58*
$RFMSGEND*
$RFMSGFROM,16100,43,111,0,0*
$DECOMPRESS,63*
$BAROALT,101084.92,15.13,19.00*
$GPGGA,103918.000,4523.4000,N,07542.6000,W,1,08,01.2,20.0,M,-34.2,M,0,0*6B
$GPRMC,103918.000,A,4523.4000,N,07542.6000,W,00.0,198.0,290317,,,D*43
$BATMV,3982*
$HRFSSI,-58*
$RFMSGEND*
$RFMSGFROM,16023,43,111,0,0*
$DECOMPRESS,63*
$BAROALT,99932.48,15.13,115.54*
$GPGGA,103919.000,4523.2053,N,07542.2567,W,1,08,01.2,116.5,M,-34.2,M,0,0*5B
$GPRMC,103919.000,A,4523.2053,N,07542.2567,W,06.0,204.0,290317,,,D*42
$BATMV,3981*
$HRFSSI,-59*
$RFMSGEND*
$RFMSGFROM,16100,43,111,0,0*
$DECOMPRESS,63*
$BAROALT,101084.92,15.13,19.00*
$GPGGA,103919.000,4523.4000,N,07542.6000,W,1,08,01.2,20.0,M,-34.2,M,0,0*6A
$GPRMC,103919.000,A,4523.4000,N,07542.6000,W,00.0,204.0,290317,,,D*44
$BATMV,3981*
$HRFSSI,-59*
$RFMSGEND*
$RFMSGFROM,16023,43,111,0,0*
$DECOMPRESS,63*
$BAROALT,99955.07,15.13,113.64*
$GPGGA,103920.000,4523.1938,N,07542.2880,W,1,08,01.2,114.6,M,-34.2,M,0,0*53
$GPRMC,103920.000,A,4523.1938,N,07542.2880,W,06.0,210.0,290317,,,D*4E
$BATMV,3980*
$HRFSSI,-60*
$RFMSGEND*
$RFMSGFROM,16100,43,111,0,0*
$DECOMPRESS,63*
$BAROALT,101084.92,15.13,19.00*
$GPGGA,103920.000,4523.4000,N,07542.6000,W,1,08,01.2,20.0,M,-34.2,M,0,0*60
$GPRMC,103920.000,A,4523.4000,N,07542.6000,W,00.0,210.0,290317,,,D*4B
$BATMV,3980*
$HRFSSI,-60*
$RFMSGEND*
$RFMSGFROM,16023,43,111,0,0*
$DECOMPRESS,63*
$BAROALT,99982.17,15.13,111.36*
$GPGGA,103921.000,4523.1802,N,07542.3175,W,1,08,01.2,112.4,M,-34.2,M,0,0*5C
$GPRMC,103921.000,A,4523.1802,N,07542.3175,W,06.0,216.0,290317,,,D*43
$BATMV,3979*
$HRFSSI,-61*
$RFMSGEND*
$RFMSGFROM,16100,43,111,0,0*
$DECOMPRESS,63*
$BAROALT,101084.92,15.13,19.00*
$GPGGA,103921.000,4523.4000,N,07542.6000,W,1,08,01.2,20.0,M,-34.2,M,0,0*61
$GPRMC,103921.000,A,4523.4000,N,07542.6000,W,00.0,216.0,290317,,,D*4C
$BATMV,3979*
$HRFSSI,-61*
$RFMSGEND*
$RFMSGFROM,16023,43,111,0,0*
$DECOMPRESS,63*
$BAROALT,100013.49,15.13,108.73*
$GPGGA,103922.000,4523.1644,N,07542.3448,W,1,08,01.2,109.7,M,-34.2,M,0,0*51
$GPRMC,103922.000,A,4523.1644,N,07542.3448,W,06.0,222.0,290317,,,D*40
$BATMV,3978*
$HRFSSI,-62*
$RFMSGEND*
$RFMSGFROM,16100,43,111,0,0*
$DECOMPRESS,63*
$BAROALT,101084.92,15.13,19.00*
$GPGGA,103922.000,4523.4000,N,07542.6000,W,1,08,01.2,20.0,M,-34.2,M,0,0*62
$GPRMC,103922.000,A,4523.4000,N,07542.6000,W,00.0,222.0,290317,,,D*48
$BATMV,3978*
$HRFSSI,-62*
$RFMSGEND*
$RFMSGFROM,16023,43,111,0,0*
$DECOMPRESS,63*
$BAROALT,100048.70,15.13,105.77*
$GPGGA,103923.000,4523.1466,N,07542.3697,W,1,08,01.2,106.8,M,-34.2,M,0,0*52
$GPRMC,103923.000,A,4523.1466,N,07542.3697,W,06.0,228.0,290317,,,D*49
$BATMV,3977*
$HRFSSI,-63*
$RFMSGEND*
$RFMSGFROM,16100,43,111,0,0*
$DECOMPRESS,63*
$BAROALT,101084.92,15.13,19.00*
$GPGGA,103923.000,4523.4000,N,07542.6000,W,1,08,01.2,20.0,M,-34.2,M,0,0*63
$GPRMC,103923.000,A,4523.4000,N,07542.6000,W,00.0,228.0,290317,,,D*43
$BATMV,3977*
$HRFSSI,-63*
$RFMSGEND*
$RFMSGFROM,16023,43,111,0,0*
$DECOMPRESS,63*
$BAROALT,100087.40,15.13,102.51*
$GPGGA,103924.000,4523.1271,N,07542.3918,W,1,08,01.2,103.5,M,-34.2,M,0,0*55
$GPRMC,103924.000,A,4523.1271,N,07542.3918,W,06.0,234.0,290317,,,D*4B
$BATMV,3976*
$HRFSSI,-64*
$RFMSGEND*
$RFMSGFROM,16100,43,111,0,0*
$DECOMPRESS,63*
$BAROALT,101084.92,15.13,19.00*
$GPGGA,103924.000,4523.4000,N,07542.6000,W,1,08,01.2,20.0,M,-34.2,M,0,0*64
$GPRMC,103924.000,A,4523.4000,N,07542.6000,W,00.0,234.0,290317,,,D*49
$BATMV,3976*
$HRFSSI,-64*
$RFMSGEND*
$RFMSGFROM,16023,43,111,0,0*
$DECOMPRESS,63*
$BAROALT,100129.18,15.13,99.00*
$GPGGA,103925.000,4523.1060,N,07542.4110,W,1,08,01.2,100.0,M,-34.2,M,0,0*57
$GPRMC,103925.000,A,4523.1060,N,07542.4110,W,06.0,240.0,290317,,,D*4C
$BATMV,3975*
$HRFSSI,-65*
$RFMSGEND*
$RFMSGFROM,16100,43,111,0,0*
$DECOMPRESS,63*
$BAROALT,101084.92,15.13,19.00*
$GPGGA,103925.000,4523.4000,N,07542.6000,W,1,08,01.2,20.0,M,-34.2,M,0,0*65
$GPRMC,103925.000,A,4523.4000,N,07542.6000,W,00.0,240.0,290317,,,D*4B
$BATMV,3975*
$HRFSSI,-65*
$RFMSGEND*
$RFMSGFROM,16023,43,111,0,0*
$DECOMPRESS,63*
$BAROALT,100173.59,15.13,95.27*
$GPGGA,103926.000,4523.0836,N,07542.4270,W,1,08,01.2,96.3,M,-34.2,M,0,0*66
$GPRMC,103926.000,A,4523.0836,N,07542.4270,W,06.0,246.0,290317,,,D*46
$BATMV,3974*
$HRFSSI,-66*
$RFMSGEND*
$RFMSGFROM,16100,43,111,0,0*
$DECOMPRESS,63*
$BAROALT,101084.92,15.13,19.00*
$GPGGA,103926.000,4523.4000,N,07542.6000,W,1,08,01.2,20.0,M,-34.2,M,0,0*66
$GPRMC,103926.000,A,4523.4000,N,07542.6000,W,00.0,246.0,290317,,,D*4E
$BATMV,3974*
$HRFSSI,-66*
$RFMSGEND*
$RFMSGFROM,16023,43,111,0,0*
$DECOMPRESS,63*
$BAROALT,100220.13,15.13,91.36*
$GPGGA,103927.000,4523.0602,N,07542.4396,W,1,08,01.2,92.4,M,-34.2,M,0,0*64
$GPRMC,103927.000,A,4523.0602,N,07542.4396,W,06.0,252.0,290317,,,D*42
$BATMV,3973*
$HRFSSI,-67*
$RFMSGEND*
$RFMSGFROM,16100,43,111,0,0*
$DECOMPRESS,63*
$BAROALT,101084.92,15.13,19.00*
$GPGGA,103927.000,4523.4000,N,07542.6000,W,1,08,01.2,20.0,M,-34.2,M,0,0*67
$GPRMC,103927.000,A,4523.4000,N,07542.6000,W,00.0,252.0,290317,,,D*4A
$BATMV,3973*
$HRFSSI,-67*
$RFMSGEND*
$RFMSGFROM,16023,43,111,0,0*
$DECOMPRESS,63*
$BAROALT,100268.31,15.13,87.32*
$GPGGA,103928.000,4523.0359,N,07542.4487,W,1,08,01.2,88.3,M,-34.2,M,0,0*6B
$GPRMC,103928.000,A,4523.0359,N,07542.4487,W,06.0,258.0,290317,,,D*4B
$BATMV,3972*
$HRFSSI,-68*
$RFMSGEND*
$RFMSGFROM,16100,43,111,0,0*
$DECOMPRESS,63*
$BAROALT,101084.92,15.13,19.00*
$GPGGA,103928.000,4523.4000,N,07542.6000,W,1,08,01.2,20.0,M,-34.2,M,0,0*68
$GPRMC,103928.000,A,4523.4000,N,07542.6000,W,00.0,258.0,290317,,,D*4F
$BATMV,3972*
$HRFSSI,-68*
$RFMSGEND*
$RFMSGFROM,16023,43,111,0,0*
$DECOMPRESS,63*
$BAROALT,100317.58,15.13,83.18*
$GPGGA,103929.000,4523.0111,N,07542.4542,W,1,08,01.2,84.2,M,-34.2,M,0,0*61
$GPRMC,103929.000,A,4523.0111,N,07542.4542,W,06.0,264.0,290317,,,D*43
$BATMV,3971*
$HRFSSI,-69*
$RFMSGEND*
$RFMSGFROM,16100,43,111,0,0*
$DECOMPRESS,63*
$BAROALT,101084.92,15.13,19.00*
$GPGGA,103929.000,4523.4000,N,07542.6000,W,1,08,01.2,20.0,M,-34.2,M,0,0*69
$GPRMC,103929.000,A,4523.4000,N,07542.6000,W,00.0,264.0,290317,,,D*41
$BATMV,3971*
$HRFSSI,-69*
$RFMSGEND*
